PROBA-1                 
1 26958U 01049B   22254.42072857  .00001546  00000+0  13429-3 0  9991
2 26958  97.8303 214.3247 0072518  58.0463 302.7782 14.96536645137339
BIRD 2                  
1 26959U 01049C   22253.79500056  .00014542  00000+0  29791-3 0  9997
2 26959  97.7638 351.4619 0007340  70.7417 289.4624 15.46172806466362
CUTE-1 (CO-55)          
1 27844U 03031E   22254.45215750  .00000204  00000+0  11116-3 0  9994
2 27844  98.6810 260.8472 0009201 207.1842 152.8855 14.22490512996136
CUBESAT XI-IV (CO-57)   
1 27848U 03031J   22254.01989192  .00000157  00000+0  90899-4 0  9991
2 27848  98.6854 260.9225 0008862 223.9859 136.0614 14.22042260995871
GENESIS 1               
1 29252U 06029A   22254.13632974  .00003806  00000+0  17211-3 0  9998
2 29252  64.5223 149.6009 0055904 249.2966 110.2161 15.21247459892072
FALCONSAT-3             
1 30776U 07006E   22253.83772969  .00060441  00000+0  73607-3 0  9991
2 30776  35.4299  58.5526 0001536  55.4283 304.6595 15.59375681862895
GENESIS 2               
1 31789U 07028A   22254.20556647  .00005212  00000+0  23992-3 0  9992
2 31789  64.4965 192.7705 0055249 300.9656  58.6046 15.20136675838991
APRIZESAT 4             
1 35684U 09041D   22254.04805527  .00000482  00000+0  70544-4 0  9993
2 35684  98.3105 270.6257 0048069  77.6277 283.0308 14.79720306707777
APRIZESAT 3             
1 35686U 09041F   22254.23835257  .00000725  00000+0  82125-4 0  9997
2 35686  98.1052 342.8182 0070607 265.9341  93.3802 14.88036530711410
PROBA-2                 
1 36037U 09059B   22254.07998866  .00000124  00000+0  40628-4 0  9990
2 36037  98.2252  79.0699 0012882 200.2584 159.8103 14.53288774681787
APRIZESAT 5             
1 37792U 11044E   22254.20347198  .00000504  00000+0  79610-4 0  9992
2 37792  98.3113 132.1043 0059008  90.9047 269.8923 14.75830718595798
APRIZESAT 6             
1 37793U 11044F   22254.19574295  .00000411  00000+0  71773-4 0  9990
2 37793  98.3916 109.1431 0047296 142.4563 335.9027 14.72846578594637
TET-1                   
1 38710U 12039D   22254.17568545  .00098172  00000+0  51665-3 0  9992
2 38710  97.5050 341.7793 0001492 148.5297 211.6060 15.80423332570901
PROBA-V                 
1 39159U 13021A   22254.07616084  .00000028  00000+0  30453-4 0  9999
2 39159  98.3517 285.6330 0003962 184.3508 175.7637 14.23047070485504
STPSAT-3                
1 39380U 13064A   22254.44394779  .00032872  00000+0  60830-3 0  9990
2 39380  40.4965 239.0865 0008536 220.4481 139.5703 15.48268216494265
APRIZESAT 7             
1 39416U 13066A   22254.49367295  .00000786  00000+0  97757-4 0  9998
2 39416  97.5810 230.3591 0042282  75.1589 285.4304 14.84558351476839
APRIZESAT 8             
1 39425U 13066K   22254.15104681  .00000598  00000+0  80600-4 0  9999
2 39425  97.6357 221.5791 0052781 119.0677 241.5837 14.81699243475927
BUGSAT-1 (TITA)         
1 40014U 14033E   22254.23552454  .00003207  00000+0  28152-3 0  9997
2 40014  98.1447 256.1710 0032365 112.3359 248.1291 14.96983533448979
SAUDISAT 4              
1 40016U 14033G   22254.48730272  .00000392  00000+0  63618-4 0  9991
2 40016  97.6403  84.6033 0047050 221.0435 138.7231 14.75615538443101
APRIZESAT 9             
1 40018U 14033J   22254.01623215  .00000284  00000+0  53367-4 0  9990
2 40018  97.7239  60.0473 0069762 299.4139  60.0117 14.70320833441352
APRIZESAT 10            
1 40019U 14033K   22254.00661166  .00000200  00000+0  41989-4 0  9992
2 40019  97.7795  49.8695 0083452 344.3220  15.5403 14.67360607440524
TDS 1                   
1 40076U 14037H   22254.17339009  .00001702  00000+0  20208-3 0  9993
2 40076  98.3775 131.6346 0007356 144.0881 216.0828 14.85908827442514
TIANTUO 2               
1 40144U 14053B   22254.30552556  .00005618  00000+0  14892-3 0  9998
2 40144  97.1903 332.5632 0009090 246.4292 197.8130 15.38689772448297
TECHNOSAT               
1 42829U 17042E   22254.53450797  .00001311  00000+0  13412-3 0  9993
2 42829  97.4122 103.6214 0015510  80.2902 280.0068 14.92030020280928
FLYING LAPTOP           
1 42831U 17042G   22254.18134627  .00000698  00000+0  73992-4 0  9995
2 42831  97.4145 103.6220 0015313  81.3352 278.9601 14.91911476280870
HAWK-A                  
1 43765U 18099H   22253.82229400  .00001081  00000+0  98008-4 0  9991
2 43765  97.6128 319.6525 0014416 351.4305   8.6669 14.97297640205919
HAWK-B                  
1 43794U 18099AN  22253.75585050  .00001046  00000+0  95004-4 0  9995
2 43794  97.6128 319.5876 0014457 351.7272   8.3709 14.97297348205894
HAWK-C                  
1 43799U 18099AT  22254.15663726  .00001113  00000+0  10073-3 0  9999
2 43799  97.6125 319.8857 0014349 350.1275   9.9663 14.97299529205950
SALSAT                  
1 46495U 20068K   22253.81753812  .00001803  00000+0  13192-3 0  9993
2 46495  97.7334 195.1790 0016182 355.2265   4.8804 15.04810524107025
